HELIOS 1B               
1 25977U 99064A   26089.16000054  .00002105  00000+0  23706-3 0  9997
2 25977  98.1673 352.0029 0001745  47.3539 312.7823 14.87777269688304
TERRA                   
1 25994U 99068A   26089.19840181  .00000576  00000+0  12633-3 0  9993
2 25994  97.9549 141.8453 0003594 108.9557 342.9004 14.61036640398076
SL-16 R/B               
1 26070U 00006B   26089.14811339  .00000319  00000+0  18640-3 0  9990
2 26070  71.0025  54.8162 0015632 157.8149 202.3653 14.15828223351455
TITAN 4B R/B            
1 26474U 00047B   26089.16894032  .00005128  00000+0  31932-3 0  9998
2 26474  67.9917 342.9173 0039865  11.3871 348.8170 15.09752161396001
ENVISAT                 
1 27386U 02009A   26089.11388237  .00000142  00000+0  59965-4 0  9999
2 27386  98.3761  42.2291 0001211  81.8079 288.6685 14.39044031262114
IDEFIX & ARIANE 42P R/B 
1 27422U 02021B   26089.05223306  .00000328  00000+0  14104-3 0  9993
2 27422  98.5893  27.4179 0012641 124.2025 236.0358 14.31039901246933
AQUA                    
1 27424U 02022A   26089.21584588  .00001280  00000+0  26493-3 0  9998
2 27424  98.4208  56.9601 0001193 117.6596 299.9408 14.62024113271733
CZ-4B R/B               
1 27432U 02024C   26089.15283721  .00000053  00000+0  50541-4 0  9996
2 27432  98.8795 142.4525 0049464 325.8795  54.1105 14.14551315232132
MIDORI II (ADEOS-II)    
1 27597U 02056A   26089.17497786  .00000397  00000+0  17397-3 0  9995
2 27597  98.7803  47.7987 0000666  19.8491 340.2716 14.29300715213224
H-2A R/B                
1 27601U 02056E   26089.14528917  .00000384  00000+0  14853-3 0  9999
2 27601  98.3237  48.7365 0071390 100.4325 271.6055 14.33774638217044
CZ-4B R/B               
1 28059U 03049C   26089.22008214  .00000463  00000+0  11745-3 0  9997
2 28059  98.6893  84.9333 0048363 167.7256 192.5130 14.55038755189582
CZ-2C R/B               
1 28222U 04012C   26089.12417872  .00075103  00000+0  69856-3 0  9992
2 28222  97.7184 156.3867 0013413 228.0705 131.9411 15.67052536207476
SL-16 R/B               
1 28353U 04021B   26089.03440578  .00000252  00000+0  15596-3 0  9991
2 28353  71.0010 189.7984 0005047 344.7755  15.3215 14.14595664125717
CZ-4B R/B               
1 28415U 04035C   26089.12833079  .00010643  00000+0  37060-3 0  9992
2 28415  97.3466 123.1271 0030047 255.0310 104.7604 15.29419641183033
CZ-2C R/B               
1 28480U 04046B   26089.17046440  .00000193  00000+0  86228-4 0  9999
2 28480  98.1978   2.8784 0140598  94.2724 267.4539 14.26999609111420
ARIANE 5 R/B            
1 28499U 04049H   26089.17975968  .00001111  00000+0  12888-3 0  9999
2 28499  98.2658 258.4083 0082913 284.8899  74.3144 14.85303661148837
CZ-2D R/B               
1 28738U 05024B   26089.02945249  .00055812  00000+0  63732-3 0  9993
2 28738  97.3578 104.9480 0002144 327.7019  32.4108 15.62029255142951
